{
  "type": "FeatureCollection",
  "features": [
    {
      "type": "Feature",
      "properties": {
        "norad_id": 29268,
        "name": "ARIRANG-2 (KOMPSAT-2)",
        "group": "resource",
        "lat": 37.67610591603375,
        "lon": -4.877012333432934,
        "alt_km": 685.6684272464026,
        "timestamp": "2025-12-06T05:40:08.892826+00:00",
        "meta_object_name": "ARIRANG-2 (KOMPSAT-2)",
        "meta_object_id": "2006-031A",
        "meta_epoch": "2025-12-05T08:16:07.353984",
        "meta_mean_motion": 14.64483652,
        "meta_eccentricity": 0.00138761,
        "meta_inclination": 97.8264,
        "meta_ra_of_asc_node": 168.178,
        "meta_arg_of_pericenter": 333.6501,
        "meta_mean_anomaly": 149.8821,
        "meta_ephemeris_type": 0,
        "meta_classification_type": "U",
        "meta_norad_cat_id": 29268,
        "meta_element_set_no": 999,
        "meta_rev_at_epoch": 3310,
        "meta_bstar": 0.00015396569,
        "meta_mean_motion_dot": 7.71e-06,
        "meta_mean_motion_ddot": 0,
        "tle_line1": "1 29268U 06031A   25339.34452956  .00000771  00000+0  15397-3 0  9999",
        "tle_line2": "2 29268  97.8264 168.1780 0013876 333.6501 149.8821 14.64483652 33105"
      },
      "geometry": {
        "type": "Point",
        "coordinates": [
          -4.877012333432934,
          37.67610591603375
        ]
      }
    },
    {
      "type": "Feature",
      "properties": {
        "norad_id": 29709,
        "name": "LAPAN-TUBSAT",
        "group": "resource",
        "lat": -58.02333392784875,
        "lon": -16.511929863881477,
        "alt_km": 627.0459152563953,
        "timestamp": "2025-12-06T05:40:08.892837+00:00",
        "meta_object_name": "LAPAN-TUBSAT",
        "meta_object_id": "2007-001A",
        "meta_epoch": "2025-12-05T05:41:16.862208",
        "meta_mean_motion": 14.85653127,
        "meta_eccentricity": 0.00136226,
        "meta_inclination": 98.1252,
        "meta_ra_of_asc_node": 329.2395,
        "meta_arg_of_pericenter": 96.401,
        "meta_mean_anomaly": 263.8756,
        "meta_ephemeris_type": 0,
        "meta_classification_type": "U",
        "meta_norad_cat_id": 29709,
        "meta_element_set_no": 999,
        "meta_rev_at_epoch": 2235,
        "meta_bstar": 0.00015310737,
        "meta_mean_motion_dot": 1.271e-05,
        "meta_mean_motion_ddot": 0,
        "tle_line1": "1 29709U 07001A   25339.23700072  .00001271  00000+0  15311-3 0  9992",
        "tle_line2": "2 29709  98.1252 329.2395 0013622  96.4010 263.8756 14.85653127 22354"
      },
      "geometry": {
        "type": "Point",
        "coordinates": [
          -16.511929863881477,
          -58.02333392784875
        ]
      }
    },
    {
      "type": "Feature",
      "properties": {
        "norad_id": 31113,
        "name": "HAIYANG-1B",
        "group": "resource",
        "lat": 24.705885846533945,
        "lon": -39.082232018386534,
        "alt_km": 778.8248991559758,
        "timestamp": "2025-12-06T05:40:08.892848+00:00",
        "meta_object_name": "HAIYANG-1B",
        "meta_object_id": "2007-010A",
        "meta_epoch": "2025-12-04T23:20:46.045824",
        "meta_mean_motion": 14.30961021,
        "meta_eccentricity": 0.0014547,
        "meta_inclination": 98.3308,
        "meta_ra_of_asc_node": 323.5721,
        "meta_arg_of_pericenter": 59.5147,
        "meta_mean_anomaly": 300.7472,
        "meta_ephemeris_type": 0,
        "meta_classification_type": "U",
        "meta_norad_cat_id": 31113,
        "meta_element_set_no": 999,
        "meta_rev_at_epoch": 97285,
        "meta_bstar": 0.00011031,
        "meta_mean_motion_dot": 2.49e-06,
        "meta_mean_motion_ddot": 0,
        "tle_line1": "1 31113U 07010A   25338.97275516  .00000249  00000+0  11031-3 0  9993",
        "tle_line2": "2 31113  98.3308 323.5721 0014547  59.5147 300.7472 14.30961021972858"
      },
      "geometry": {
        "type": "Point",
        "coordinates": [
          -39.082232018386534,
          24.705885846533945
        ]
      }
    },
    {
      "type": "Feature",
      "properties": {
        "norad_id": 31598,
        "name": "COSMO-SKYMED 1",
        "group": "resource",
        "lat": 21.747211183898703,
        "lon": 162.424293346254,
        "alt_km": 579.5359239473792,
        "timestamp": "2025-12-06T05:40:08.892859+00:00",
        "meta_object_name": "COSMO-SKYMED 1",
        "meta_object_id": "2007-023A",
        "meta_epoch": "2025-12-05T07:05:33.938016",
        "meta_mean_motion": 14.95681096,
        "meta_eccentricity": 0.00012645,
        "meta_inclination": 97.8835,
        "meta_ra_of_asc_node": 164.6465,
        "meta_arg_of_pericenter": 78.7019,
        "meta_mean_anomaly": 281.4344,
        "meta_ephemeris_type": 0,
        "meta_classification_type": "U",
        "meta_norad_cat_id": 31598,
        "meta_element_set_no": 999,
        "meta_rev_at_epoch": 79,
        "meta_bstar": 0.00057502213,
        "meta_mean_motion_dot": 6.341e-05,
        "meta_mean_motion_ddot": 0,
        "tle_line1": "1 31598U 07023A   25339.29553169  .00006341  00000+0  57502-3 0  9995",
        "tle_line2": "2 31598  97.8835 164.6465 0001264  78.7019 281.4344 14.95681096   796"
      },
      "geometry": {
        "type": "Point",
        "coordinates": [
          162.424293346254,
          21.747211183898703
        ]
      }
    },
    {
      "type": "Feature",
      "properties": {
        "norad_id": 31698,
        "name": "TERRASAR-X",
        "group": "resource",
        "lat": -30.419338229068973,
        "lon": 161.3085413131002,
        "alt_km": 515.3663071154278,
        "timestamp": "2025-12-06T05:40:08.892869+00:00",
        "meta_object_name": "TERRASAR-X",
        "meta_object_id": "2007-026A",
        "meta_epoch": "2025-12-04T14:48:18.110592",
        "meta_mean_motion": 15.19148632,
        "meta_eccentricity": 0.00018957,
        "meta_inclination": 97.4444,
        "meta_ra_of_asc_node": 344.116,
        "meta_arg_of_pericenter": 81.1065,
        "meta_mean_anomaly": 279.0384,
        "meta_ephemeris_type": 0,
        "meta_classification_type": "U",
        "meta_norad_cat_id": 31698,
        "meta_element_set_no": 999,
        "meta_rev_at_epoch": 2368,
        "meta_bstar": 0.00014930646,
        "meta_mean_motion_dot": 3.069e-05,
        "meta_mean_motion_ddot": 0,
        "tle_line1": "1 31698U 07026A   25338.61687628  .00003069  00000+0  14931-3 0  9995",
        "tle_line2": "2 31698  97.4444 344.1160 0001895  81.1065 279.0384 15.19148632 23686"
      },
      "geometry": {
        "type": "Point",
        "coordinates": [
          161.3085413131002,
          -30.419338229068973
        ]
      }
    },
    {
      "type": "Feature",
      "properties": {
        "norad_id": 32060,
        "name": "WORLDVIEW-1 (WV-1)",
        "group": "resource",
        "lat": 80.72269092965728,
        "lon": 45.253811393900016,
        "alt_km": 484.2877624209177,
        "timestamp": "2025-12-06T05:40:08.892880+00:00",
        "meta_object_name": "WORLDVIEW-1 (WV-1)",
        "meta_object_id": "2007-041A",
        "meta_epoch": "2025-12-05T07:14:47.479488",
        "meta_mean_motion": 15.24502289,
        "meta_eccentricity": 7.439e-05,
        "meta_inclination": 97.3844,
        "meta_ra_of_asc_node": 96.8891,
        "meta_arg_of_pericenter": 98.0568,
        "meta_mean_anomaly": 262.0754,
        "meta_ephemeris_type": 0,
        "meta_classification_type": "U",
        "meta_norad_cat_id": 32060,
        "meta_element_set_no": 999,
        "meta_rev_at_epoch": 1334,
        "meta_bstar": 0.00060653092,
        "meta_mean_motion_dot": 0.00014858,
        "meta_mean_motion_ddot": 0,
        "tle_line1": "1 32060U 07041A   25339.30193842  .00014858  00000+0  60653-3 0  9993",
        "tle_line2": "2 32060  97.3844  96.8891 0000743  98.0568 262.0754 15.24502289 13344"
      },
      "geometry": {
        "type": "Point",
        "coordinates": [
          45.253811393900016,
          80.72269092965728
        ]
      }
    },
    {
      "type": "Feature",
      "properties": {
        "norad_id": 32289,
        "name": "YAOGAN-3",
        "group": "resource",
        "lat": 9.034732910518565,
        "lon": 5.6654687111234265,
        "alt_km": 599.8760162096105,
        "timestamp": "2025-12-06T05:40:08.892892+00:00",
        "meta_object_name": "YAOGAN-3",
        "meta_object_id": "2007-055A",
        "meta_epoch": "2025-12-05T07:03:40.262400",
        "meta_mean_motion": 14.89802483,
        "meta_eccentricity": 0.00015337,
        "meta_inclination": 97.8369,
        "meta_ra_of_asc_node": 5.9869,
        "meta_arg_of_pericenter": 78.7649,
        "meta_mean_anomaly": 281.3741,
        "meta_ephemeris_type": 0,
        "meta_classification_type": "U",
        "meta_norad_cat_id": 32289,
        "meta_element_set_no": 999,
        "meta_rev_at_epoch": 97698,
        "meta_bstar": 0.00056550091,
        "meta_mean_motion_dot": 5.373e-05,
        "meta_mean_motion_ddot": 0,
        "tle_line1": "1 32289U 07055A   25339.29421600  .00005373  00000+0  56550-3 0  9998",
        "tle_line2": "2 32289  97.8369   5.9869 0001533  78.7649 281.3741 14.89802483976980"
      },
      "geometry": {
        "type": "Point",
        "coordinates": [
          5.6654687111234265,
          9.034732910518565
        ]
      }
    }
  ]
}